STARLINK-2163
1 47749U 21017AD  26092.83335647  .00137097  00000+0  24985-2 0  9996
2 47749  53.1577  80.5713 0002214 118.1483 334.1808 15.48514731  5843
